[
  {
    "OBJECT_NAME": "STARLINK-5142",
    "OBJECT_ID": "22125W",
    "EPOCH": "2025-11-11T04:59:31.161120",
    "MEAN_MOTION": 15.08851485,
    "ECCENTRICITY": 0.0001727,
    "INCLINATION": 53.221,
    "RA_OF_ASC_NODE": 26.1587,
    "ARG_OF_PERICENTER": 93.9486,
    "MEAN_ANOMALY": 266.1704,
    "EPHEMERIS_TYPE": 0,
    "CLASSIFICATION_TYPE": "U",
    "NORAD_CAT_ID": 53984,
    "ELEMENT_SET_NO": 999,
    "REV_AT_EPOCH": 17157,
    "BSTAR": 1.6388e-06,
    "MEAN_MOTION_DOT": -2.62e-06,
    "MEAN_MOTION_DDOT": 0.0,
    "TLE_LINE1": "1 53984U 22125W   25315.20799955 -.00000262  00000+0  16388-5 0  9994",
    "TLE_LINE2": "2 53984  53.2210  26.1587 0001727  93.9486 266.1704 15.08851485171571",
    "COMMENT": "Grouped by shell and plane from TLE"
  },
  {
    "OBJECT_NAME": "STARLINK-5147",
    "OBJECT_ID": "22125X",
    "EPOCH": "2025-11-11T05:10:07.448736",
    "MEAN_MOTION": 15.08839594,
    "ECCENTRICITY": 0.0001533,
    "INCLINATION": 53.2195,
    "RA_OF_ASC_NODE": 26.2022,
    "ARG_OF_PERICENTER": 100.9321,
    "MEAN_ANOMALY": 259.1844,
    "EPHEMERIS_TYPE": 0,
    "CLASSIFICATION_TYPE": "U",
    "NORAD_CAT_ID": 53985,
    "ELEMENT_SET_NO": 999,
    "REV_AT_EPOCH": 17157,
    "BSTAR": 1.4063e-05,
    "MEAN_MOTION_DOT": -6.4e-07,
    "MEAN_MOTION_DDOT": 0.0,
    "TLE_LINE1": "1 53985U 22125X   25315.21536399 -.00000064  00000+0  14063-4 0  9994",
    "TLE_LINE2": "2 53985  53.2195  26.2022 0001533 100.9321 259.1844 15.08839594171575",
    "COMMENT": "Grouped by shell and plane from TLE"
  },
  {
    "OBJECT_NAME": "STARLINK-5113",
    "OBJECT_ID": "22125AA",
    "EPOCH": "2025-11-11T04:54:12.269952",
    "MEAN_MOTION": 15.08845816,
    "ECCENTRICITY": 0.0001449,
    "INCLINATION": 53.2178,
    "RA_OF_ASC_NODE": 26.1375,
    "ARG_OF_PERICENTER": 96.2417,
    "MEAN_ANOMALY": 263.874,
    "EPHEMERIS_TYPE": 0,
    "CLASSIFICATION_TYPE": "U",
    "NORAD_CAT_ID": 53988,
    "ELEMENT_SET_NO": 999,
    "REV_AT_EPOCH": 17156,
    "BSTAR": 5.7347000000000005e-05,
    "MEAN_MOTION_DOT": 6.25e-06,
    "MEAN_MOTION_DDOT": 0.0,
    "TLE_LINE1": "1 53988U 22125AA  25315.20430868  .00000625  00000+0  57347-4 0  9994",
    "TLE_LINE2": "2 53988  53.2178  26.1375 0001449  96.2417 263.8740 15.08845816171568",
    "COMMENT": "Grouped by shell and plane from TLE"
  },
  {
    "OBJECT_NAME": "STARLINK-5108",
    "OBJECT_ID": "22125AE",
    "EPOCH": "2025-11-11T04:38:17.740896",
    "MEAN_MOTION": 15.08846654,
    "ECCENTRICITY": 0.0001575,
    "INCLINATION": 53.2194,
    "RA_OF_ASC_NODE": 26.0689,
    "ARG_OF_PERICENTER": 86.0685,
    "MEAN_ANOMALY": 274.0488,
    "EPHEMERIS_TYPE": 0,
    "CLASSIFICATION_TYPE": "U",
    "NORAD_CAT_ID": 53992,
    "ELEMENT_SET_NO": 999,
    "REV_AT_EPOCH": 17156,
    "BSTAR": 0.0,
    "MEAN_MOTION_DOT": -4.76e-06,
    "MEAN_MOTION_DDOT": 0.0,
    "TLE_LINE1": "1 53992U 22125AE  25315.19326089 -.00000476  00000+0 -11778-4 0  9990",
    "TLE_LINE2": "2 53992  53.2194  26.0689 0001575  86.0685 274.0488 15.08846654171566",
    "COMMENT": "Grouped by shell and plane from TLE"
  },
  {
    "OBJECT_NAME": "STARLINK-5121",
    "OBJECT_ID": "22125AF",
    "EPOCH": "2025-11-10T13:45:59.494464",
    "MEAN_MOTION": 15.08843293,
    "ECCENTRICITY": 2.84e-05,
    "INCLINATION": 53.2195,
    "RA_OF_ASC_NODE": 23.6091,
    "ARG_OF_PERICENTER": 217.7443,
    "MEAN_ANOMALY": 142.3529,
    "EPHEMERIS_TYPE": 0,
    "CLASSIFICATION_TYPE": "U",
    "NORAD_CAT_ID": 53993,
    "ELEMENT_SET_NO": 999,
    "REV_AT_EPOCH": 17154,
    "BSTAR": 0.00013998,
    "MEAN_MOTION_DOT": 1.941e-05,
    "MEAN_MOTION_DDOT": 0.0,
    "TLE_LINE1": "1 53993U 22125AF  25314.57360526  .00001941  00000+0  13998-3 0  9997",
    "TLE_LINE2": "2 53993  53.2195  23.6091 0000284 217.7443 142.3529 15.08843293171546",
    "COMMENT": "Grouped by shell and plane from TLE"
  },
  {
    "OBJECT_NAME": "STARLINK-5125",
    "OBJECT_ID": "22125AG",
    "EPOCH": "2025-11-11T04:22:22.876608",
    "MEAN_MOTION": 15.08838839,
    "ECCENTRICITY": 0.0001383,
    "INCLINATION": 53.2196,
    "RA_OF_ASC_NODE": 26.0008,
    "ARG_OF_PERICENTER": 95.4185,
    "MEAN_ANOMALY": 264.6965,
    "EPHEMERIS_TYPE": 0,
    "CLASSIFICATION_TYPE": "U",
    "NORAD_CAT_ID": 53994,
    "ELEMENT_SET_NO": 999,
    "REV_AT_EPOCH": 17157,
    "BSTAR": 4.2613e-05,
    "MEAN_MOTION_DOT": 3.9e-06,
    "MEAN_MOTION_DDOT": 0.0,
    "TLE_LINE1": "1 53994U 22125AG  25315.18220922  .00000390  00000+0  42613-4 0  9995",
    "TLE_LINE2": "2 53994  53.2196  26.0008 0001383  95.4185 264.6965 15.08838839171573",
    "COMMENT": "Grouped by shell and plane from TLE"
  },
  {
    "OBJECT_NAME": "STARLINK-5097",
    "OBJECT_ID": "22125AH",
    "EPOCH": "2025-11-11T04:32:59.259264",
    "MEAN_MOTION": 15.08840304,
    "ECCENTRICITY": 0.0001677,
    "INCLINATION": 53.2176,
    "RA_OF_ASC_NODE": 26.0485,
    "ARG_OF_PERICENTER": 85.4681,
    "MEAN_ANOMALY": 274.6503,
    "EPHEMERIS_TYPE": 0,
    "CLASSIFICATION_TYPE": "U",
    "NORAD_CAT_ID": 53995,
    "ELEMENT_SET_NO": 999,
    "REV_AT_EPOCH": 17156,
    "BSTAR": 6.2427e-05,
    "MEAN_MOTION_DOT": 7.06e-06,
    "MEAN_MOTION_DDOT": 0.0,
    "TLE_LINE1": "1 53995U 22125AH  25315.18957476  .00000706  00000+0  62427-4 0  9993",
    "TLE_LINE2": "2 53995  53.2176  26.0485 0001677  85.4681 274.6503 15.08840304171565",
    "COMMENT": "Grouped by shell and plane from TLE"
  },
  {
    "OBJECT_NAME": "STARLINK-5131",
    "OBJECT_ID": "22125AJ",
    "EPOCH": "2025-11-11T04:17:04.199712",
    "MEAN_MOTION": 15.08836631,
    "ECCENTRICITY": 0.0001316,
    "INCLINATION": 53.2185,
    "RA_OF_ASC_NODE": 25.9768,
    "ARG_OF_PERICENTER": 95.8278,
    "MEAN_ANOMALY": 264.2864,
    "EPHEMERIS_TYPE": 0,
    "CLASSIFICATION_TYPE": "U",
    "NORAD_CAT_ID": 53996,
    "ELEMENT_SET_NO": 999,
    "REV_AT_EPOCH": 17157,
    "BSTAR": 5.8814e-05,
    "MEAN_MOTION_DOT": 6.48e-06,
    "MEAN_MOTION_DDOT": 0.0,
    "TLE_LINE1": "1 53996U 22125AJ  25315.17852083  .00000648  00000+0  58814-4 0  9991",
    "TLE_LINE2": "2 53996  53.2185  25.9768 0001316  95.8278 264.2864 15.08836631171579",
    "COMMENT": "Grouped by shell and plane from TLE"
  },
  {
    "OBJECT_NAME": "STARLINK-5128",
    "OBJECT_ID": "22125AL",
    "EPOCH": "2025-11-11T04:06:27.905184",
    "MEAN_MOTION": 15.08844485,
    "ECCENTRICITY": 0.0001381,
    "INCLINATION": 53.218,
    "RA_OF_ASC_NODE": 25.9307,
    "ARG_OF_PERICENTER": 100.798,
    "MEAN_ANOMALY": 259.3168,
    "EPHEMERIS_TYPE": 0,
    "CLASSIFICATION_TYPE": "U",
    "NORAD_CAT_ID": 53998,
    "ELEMENT_SET_NO": 999,
    "REV_AT_EPOCH": 17157,
    "BSTAR": 0.00025085,
    "MEAN_MOTION_DOT": 3.707e-05,
    "MEAN_MOTION_DDOT": 0.0,
    "TLE_LINE1": "1 53998U 22125AL  25315.17115631  .00003707  00000+0  25085-3 0  9996",
    "TLE_LINE2": "2 53998  53.2180  25.9307 0001381 100.7980 259.3168 15.08844485171571",
    "COMMENT": "Grouped by shell and plane from TLE"
  },
  {
    "OBJECT_NAME": "STARLINK-5079",
    "OBJECT_ID": "22125AM",
    "EPOCH": "2025-11-11T04:27:40.550400",
    "MEAN_MOTION": 15.08839673,
    "ECCENTRICITY": 0.0001432,
    "INCLINATION": 53.2196,
    "RA_OF_ASC_NODE": 26.0225,
    "ARG_OF_PERICENTER": 94.3994,
    "MEAN_ANOMALY": 265.7162,
    "EPHEMERIS_TYPE": 0,
    "CLASSIFICATION_TYPE": "U",
    "NORAD_CAT_ID": 53999,
    "ELEMENT_SET_NO": 999,
    "REV_AT_EPOCH": 17157,
    "BSTAR": 8.0678e-05,
    "MEAN_MOTION_DOT": 9.96e-06,
    "MEAN_MOTION_DDOT": 0.0,
    "TLE_LINE1": "1 53999U 22125AM  25315.18588600  .00000996  00000+0  80678-4 0  9995",
    "TLE_LINE2": "2 53999  53.2196  26.0225 0001432  94.3994 265.7162 15.08839673171578",
    "COMMENT": "Grouped by shell and plane from TLE"
  },
  {
    "OBJECT_NAME": "STARLINK-5114",
    "OBJECT_ID": "22125AR",
    "EPOCH": "2025-11-11T04:11:45.850272",
    "MEAN_MOTION": 15.08840064,
    "ECCENTRICITY": 0.0001538,
    "INCLINATION": 53.2196,
    "RA_OF_ASC_NODE": 25.9547,
    "ARG_OF_PERICENTER": 84.9557,
    "MEAN_ANOMALY": 275.1611,
    "EPHEMERIS_TYPE": 0,
    "CLASSIFICATION_TYPE": "U",
    "NORAD_CAT_ID": 54003,
    "ELEMENT_SET_NO": 999,
    "REV_AT_EPOCH": 17157,
    "BSTAR": 8.749900000000001e-05,
    "MEAN_MOTION_DOT": 1.105e-05,
    "MEAN_MOTION_DDOT": 0.0,
    "TLE_LINE1": "1 54003U 22125AR  25315.17483623  .00001105  00000+0  87499-4 0  9991",
    "TLE_LINE2": "2 54003  53.2196  25.9547 0001538  84.9557 275.1611 15.08840064171577",
    "COMMENT": "Grouped by shell and plane from TLE"
  },
  {
    "OBJECT_NAME": "STARLINK-5129",
    "OBJECT_ID": "22125AS",
    "EPOCH": "2025-11-11T05:31:13.751328",
    "MEAN_MOTION": 15.08838187,
    "ECCENTRICITY": 0.0001561,
    "INCLINATION": 53.219,
    "RA_OF_ASC_NODE": 25.5898,
    "ARG_OF_PERICENTER": 98.1228,
    "MEAN_ANOMALY": 261.9942,
    "EPHEMERIS_TYPE": 0,
    "CLASSIFICATION_TYPE": "U",
    "NORAD_CAT_ID": 54004,
    "ELEMENT_SET_NO": 999,
    "REV_AT_EPOCH": 17158,
    "BSTAR": 0.00017123,
    "MEAN_MOTION_DOT": 2.438e-05,
    "MEAN_MOTION_DDOT": 0.0,
    "TLE_LINE1": "1 54004U 22125AS  25315.23002027  .00002438  00000+0  17123-3 0  9990",
    "TLE_LINE2": "2 54004  53.2190  25.5898 0001561  98.1228 261.9942 15.08838187171589",
    "COMMENT": "Grouped by shell and plane from TLE"
  },
  {
    "OBJECT_NAME": "STARLINK-5135",
    "OBJECT_ID": "22125AT",
    "EPOCH": "2025-11-11T05:36:31.930560",
    "MEAN_MOTION": 15.08837877,
    "ECCENTRICITY": 0.0001168,
    "INCLINATION": 53.2179,
    "RA_OF_ASC_NODE": 25.6103,
    "ARG_OF_PERICENTER": 84.066,
    "MEAN_ANOMALY": 276.0466,
    "EPHEMERIS_TYPE": 0,
    "CLASSIFICATION_TYPE": "U",
    "NORAD_CAT_ID": 54005,
    "ELEMENT_SET_NO": 999,
    "REV_AT_EPOCH": 17158,
    "BSTAR": 9.4887e-05,
    "MEAN_MOTION_DOT": 1.223e-05,
    "MEAN_MOTION_DDOT": 0.0,
    "TLE_LINE1": "1 54005U 22125AT  25315.23370290  .00001223  00000+0  94887-4 0  9995",
    "TLE_LINE2": "2 54005  53.2179  25.6103 0001168  84.0660 276.0466 15.08837877171587",
    "COMMENT": "Grouped by shell and plane from TLE"
  }
]